IRIDIUM 135             
1 43070U 17083A   26154.54670234  .00000093  00000+0  25971-4 0  9991
2 43070  86.3958 327.7204 0002179  90.3486 269.7960 14.34218697442193
IRIDIUM 138             
1 43071U 17083B   26154.99068372  .00000114  00000+0  33684-4 0  9999
2 43071  86.3952 327.2239 0002540  89.0253 271.1233 14.34217287442240
IRIDIUM 116             
1 43072U 17083C   26154.54035695  .00000057  00000+0  13424-4 0  9999
2 43072  86.3955 327.7086 0001863  92.8013 267.3396 14.34218702442219
IRIDIUM 130             
1 43073U 17083D   26154.99702650  .00000216  00000+0  70152-4 0  9999
2 43073  86.3965 327.7920 0001987  85.8706 274.2717 14.34218950442226
IRIDIUM 151             
1 43074U 17083E   26154.97165630  .00000100  00000+0  28655-4 0  9992
2 43074  86.3961 327.5863 0002174  92.3398 267.8046 14.34217394442242
IRIDIUM 134             
1 43075U 17083F   26155.00971284  .00000106  00000+0  30875-4 0  9991
2 43075  86.3960 327.5780 0002095  88.3106 271.8330 14.34218266442211
IRIDIUM 137             
1 43076U 17083G   26154.53401498  .00000085  00000+0  23380-4 0  9993
2 43076  86.3960 327.8694 0001896 101.3050 258.8359 14.34218432442212
IRIDIUM 141             
1 43077U 17083H   26155.01605409  .00000012  00000+0 -27543-5 0  9993
2 43077  86.3954 327.4987 0002206  91.4115 268.7334 14.34217901442284
IRIDIUM 153             
1 43078U 17083J   26154.47985492  .00000032  00000+0  44449-5 0  9991
2 43078  86.3951 296.2035 0002374  90.5632 269.5836 14.34217679443312
IRIDIUM 131             
1 43079U 17083K   26155.00336925  .00000034  00000+0  50164-5 0  9996
2 43079  86.3960 327.6891 0002177  92.4012 267.7433 14.34218141442212
IRIDIUM 144             
1 43249U 18030A   26154.48619444  .00000111  00000+0  32579-4 0  9994
2 43249  86.3955 296.1314 0002040  93.0281 267.1149 14.34218560428171
IRIDIUM 149             
1 43250U 18030B   26154.49253998  .00000004  00000+0 -55178-5 0  9998
2 43250  86.3943 296.0950 0002153  93.2178 266.9264 14.34217377428199
IRIDIUM 157             
1 43251U 18030C   26154.44179877  .00000004  00000+0 -55076-5 0  9994
2 43251  86.3944 296.1692 0002058  92.7250 267.4181 14.34217474428163
IRIDIUM 140             
1 43252U 18030D   26154.94920621  .00000027  00000+0  27352-5 0  9991
2 43252  86.3949 295.9690 0002146  91.6391 268.5051 14.34217609428298
IRIDIUM 145             
1 43253U 18030E   26154.44813854  .00000067  00000+0  16917-4 0  9994
2 43253  86.3951 296.1509 0001879  94.4998 265.6412 14.34218485428157
IRIDIUM 146             
1 43254U 18030F   26153.94073362  .00000005  00000+0 -53107-5 0  9997
2 43254  86.3948 296.3756 0002050  93.0477 267.0954 14.34217534428093
IRIDIUM 148             
1 43255U 18030G   26154.95554770  .00000040  00000+0  70940-5 0  9999
2 43255  86.3950 295.9940 0002131  96.0501 264.0938 14.34217937428274
IRIDIUM 142             
1 43256U 18030H   26154.92383517  .00000024  00000+0  16764-5 0  9992
2 43256  86.3945 295.8962 0001988  95.2585 264.8838 14.34217489428239
IRIDIUM 150             
1 43257U 18030J   26154.47351181  .00000004  00000+0 -54940-5 0  9992
2 43257  86.3945 296.2012 0002043  91.6251 268.5179 14.34217435428199
IRIDIUM 143             
1 43258U 18030K   26154.45448386 -.00000006  00000+0 -93439-5 0  9994
2 43258  86.3948 296.3013 0001937  92.4006 267.7412 14.34217324428124
IRIDIUM 161             
1 43478U 18047C   26154.30282571  .00000376  00000+0  10577-3 0  9990
2 43478  86.4479  94.2760 0002470  89.9942 270.1541 14.43281947423134
IRIDIUM 152             
1 43479U 18047D   26154.28766567  .00000033  00000+0  47785-5 0  9993
2 43479  86.3954  94.1433 0002364  85.1257 275.0209 14.34217603420496
IRIDIUM 147             
1 43480U 18047E   26154.29400565  .00000147  00000+0  45367-4 0  9998
2 43480  86.3956  94.1456 0002168  84.3251 275.8192 14.34217712420492
IRIDIUM 110             
1 43481U 18047F   26154.30035090  .00000047  00000+0  97096-5 0  9994
2 43481  86.3956  94.2344 0002558  89.2093 270.9396 14.34217825420487
IRIDIUM 162             
1 43482U 18047G   26154.29651377  .00000390  00000+0  10982-3 0  9993
2 43482  86.4477  94.1694 0002399  85.2096 274.9379 14.43273285423127
IRIDIUM 160             
1 43569U 18061A   26154.24618650  .00000087  00000+0  23909-4 0  9994
2 43569  86.3969  62.6255 0002269  87.5514 272.5941 14.34217702411372
IRIDIUM 166             
1 43570U 18061B   26155.10877839  .00000056  00000+0  12953-4 0  9991
2 43570  86.3967  62.2159 0002091  85.1137 275.0298 14.34217898411525
IRIDIUM 158             
1 43571U 18061C   26154.23984132  .00000066  00000+0  16636-4 0  9993
2 43571  86.3968  62.5888 0002344  83.5835 276.5628 14.34216372411368
IRIDIUM 165             
1 43572U 18061D   26155.10243230  .00000322  00000+0  10807-3 0  9996
2 43572  86.3970  62.2742 0002107  83.9328 276.2108 14.34220101411518
IRIDIUM 155             
1 43573U 18061E   26154.22715834  .00000099  00000+0  28460-4 0  9999
2 43573  86.3966  62.5102 0002211  81.2018 278.9429 14.34217910411351
